#aV2023 10  8  0  0  0.00000000     288 DD+AD WGS84 FIT  NGA
## 2283      0.00000000   300.00000000 60225 0.0000000000000
+   32     1  2  3  4  5  6  7  8  9 10 11 12 13 14 15 16 17
+         18 19 20 21 22 23 24 25 26 27 28 29 30 31 32  0  0
+          0  0  0  0  0  0  0  0  0  0  0  0  0  0  0  0  0
+          0  0  0  0  0  0  0  0  0  0  0  0  0  0  0  0  0
+          0  0  0  0  0  0  0  0  0  0  0  0  0  0  0  0  0
++         2  2  2  2  2  2  2  2  2  2  2  2  2  2  2  2  2
++         2  2  2  2  2  2  2  2  2  2  2  2  2  2  2  0  0
++         0  0  0  0  0  0  0  0  0  0  0  0  0  0  0  0  0
++         0  0  0  0  0  0  0  0  0  0  0  0  0  0  0  0  0
++         0  0  0  0  0  0  0  0  0  0  0  0  0  0  0  0  0
%c cc cc ccc ccc cccc cccc cccc cccc ccccc ccccc ccccc ccccc
%c cc cc ccc ccc cccc cccc cccc cccc ccccc ccccc ccccc ccccc
%f  0.0000000  0.000000000  0.00000000000  0.000000000000000
%f  0.0000000  0.000000000  0.00000000000  0.000000000000000
%i    0    0    0    0      0      0      0      0         0
%i    0    0    0    0      0      0      0      0         0
/*      NGA, ST. LOUIS,MO.                                  
/*   EPHEMERIS COMPUTED FROM 2 DAYS OF DATA                 
/*   EPOCHA v8 SMOOTHER                                     
/*   G2139 IERS2010 SATIGS SATAPC                           
*  2023 10  8 20  0  0.00000000
P  1 -19744.504802 -11831.655613  13202.757136    163.993457                    
V  1  -9231.656988 -14524.222077 -25819.802344     -0.005410                    
P  2 -20956.147741 -14805.505586   7720.337076   -544.466791                    
V  2  -4555.803214  -8146.754469 -29778.253341      0.046740                    
P  3 -15089.716945  -1354.583042  21655.157281    -90.581681                    
V  3  10007.714572 -25945.869730   5419.186792      0.225147                    
P  4 -25961.131838  -1264.927068   5784.436033    178.825113                    
V  4   6997.147484  -3303.636860  30595.506944      0.108621                    
P  5   8550.130107  16136.531590 -19435.350675   -145.745041                    
V  5  -9142.749735  22546.885708  14930.046980     -0.014635                    
P  6   1333.399467  20250.771267  17151.000091    534.803687                    
V  6 -14133.855671 -16407.941357  20639.734260     -0.080707                    
P  7 -14992.446696   5071.304965 -20918.599968     45.733679                    
V  7 -16661.237557 -22052.892720   5981.459731     -0.102961                    
P  8 -21235.655948  -6905.875727 -14759.734388   -146.125571                    
V  8  17870.728296  -4992.234475 -23098.325790     -0.019832                    
P  9 -25457.458093   6815.653708  -3627.673300    -37.973686                    
V  9  -4900.795179  -2082.277753  31184.011177      0.106730                    
P 10  10784.513186 -24007.954192  -1621.989629    -56.538365                    
V 10   1442.903193   3053.842794 -32316.058163     -0.014876                    
P 11  11211.059331  23295.621725   6224.622415   -406.028580                    
V 11  -6581.389087  -4979.423679  30520.874969     -0.175671                    
P 12  14080.943425   5327.482966  21606.445432   -433.664743                    
V 12 -12090.823758  25346.891061   1680.750510     -0.042481                    
P 13  12913.203514  13227.329999 -19349.689478    581.743179                    
V 13 -24047.261217   1094.294998 -15249.759804      0.043518                    
P 14 -13533.330529  22202.435395  -4927.488141    208.248733                    
V 14   -503.608871  -7121.938729 -30729.606739      0.111249                    
P 15  22328.504608   4500.911858 -14339.030038     85.177969                    
V 15 -15970.028551   7265.525435 -23154.130037      0.037088                    
P 16  -3018.503819 -20200.091771 -17038.477650   -442.225198                    
V 16  11296.327718 -18057.988535  20214.605817      0.059647                    
P 17 -15706.952275  13156.945487  17400.264173    723.851735                    
V 17 -21216.281323    354.333895 -19808.832686     -0.000535                    
P 18  13220.477913  -7152.691899 -21899.535700   -442.643513                    
V 18  16634.124827  22238.429847   2600.856315     -0.119138                    
P 19  -6811.988747  14529.571662  20900.237651    382.267025                    
V 19 -27054.788617     58.633056  -9108.157883      0.051967                    
P 20   2352.965063  24424.374919 -10358.670204    407.835556                    
V 20  -5326.272092  12330.230456  27564.727083     -0.019500                    
P 21 -20456.773419 -17254.913853   4490.898168    147.221176                    
V 21  -1978.396672  -4885.243220 -30536.166822     -0.008647                    
P 22 -10294.571244  24528.224803   2888.611152    106.665921                    
V 22  -3595.752191   1623.458267 -31346.403100     -0.072321                    
P 23  15770.698503 -16487.852604 -13436.995673     79.727618                    
V 23  -4056.033751  16747.384722 -25468.187759      0.056678                    
P 24  21277.329013  13896.733545   8036.949834   -340.897493                    
V 24   5034.198914   9890.787984 -28613.806882     -0.100224                    
P 25  17062.824818  -9344.637887  17642.688920    471.754993                    
V 25  -6458.012175  22339.479804  18022.686027      0.018640                    
P 26   2204.540553 -25221.805211  -7526.876524    224.332272                    
V 26   6457.624248  -7937.484009  29326.095172     -0.021631                    
P 27  -9398.676139 -13456.565592 -21214.900935    -52.078664                    
V 27  25900.082552  -4306.785346  -8442.138824     -0.058866                    
P 28      5.803609 -19503.957782  18006.776101    -22.079912                    
V 28  15946.662247  16521.057185  17866.030497     -0.065800                    
P 29  25985.687713  -4319.636145  -3862.595150   -609.939119                    
V 29   4964.071419   1937.368920  31489.554850     -0.002557                    
P 30  -7382.460251  15046.173311 -20431.988262   -480.484655                    
V 30 -17067.442445 -20132.321505  -8869.523189      0.036189                    
P 31  -7485.051447 -22756.661567  10808.052327   -224.408134                    
V 31  10875.919349   9559.887241  27589.690197     -0.004795                    
P 32  10909.736052 -15116.391110  19018.885881   -569.839295                    
V 32  23795.976818  -2134.751155 -15695.307532     -0.054506                    
EOF
